{
  "norad_id": 63630,
  "name": "KORSAT-3",
  "history": [
    {
      "epoch": "2026-03-28T22:43:01.514784Z",
      "apogee_km": 574.5390960886698,
      "perigee_km": 564.4861250081913,
      "latitude_deg": 2.7962330315738352e-05,
      "longitude_deg": -135.3593777620843,
      "height_km": 573.5540129938033,
      "semi_major_axis_km": 6947.64961054843,
      "eccentricity": 0.00072348,
      "inclination_deg": 45.4123,
      "raan_deg": 31.7566,
      "arg_perigee_deg": 142.7983,
      "mean_anomaly_deg": 217.3398,
      "mean_motion_rev_day": 14.99152801
    },
    {
      "epoch": "2026-03-29T05:06:51.445152Z",
      "apogee_km": 574.5534433249568,
      "perigee_km": 564.4543525157396,
      "latitude_deg": 1.676980038790408e-05,
      "longitude_deg": 127.03714436615587,
      "height_km": 573.6495368295733,
      "semi_major_axis_km": 6947.640897920348,
      "eccentricity": 0.0007268,
      "inclination_deg": 45.4124,
      "raan_deg": 30.3739,
      "arg_perigee_deg": 144.4362,
      "mean_anomaly_deg": 215.7002,
      "mean_motion_rev_day": 14.99155621
    },
    {
      "epoch": "2026-03-30T01:54:18.209088Z",
      "apogee_km": 574.5056362812038,
      "perigee_km": 565.7077701042217,
      "latitude_deg": -1.2708957305534288e-05,
      "longitude_deg": 169.82705306731722,
      "height_km": 574.0326544174562,
      "semi_major_axis_km": 6948.243703192713,
      "eccentricity": 0.0006331,
      "inclination_deg": 45.4126,
      "raan_deg": 25.8792,
      "arg_perigee_deg": 152.053,
      "mean_anomaly_deg": 208.0689,
      "mean_motion_rev_day": 14.98960533
    },
    {
      "epoch": "2026-03-30T01:54:18.258336Z",
      "apogee_km": 574.583582867006,
      "perigee_km": 564.3464302623725,
      "latitude_deg": -3.9929774997837034e-05,
      "longitude_deg": 169.8280206203312,
      "height_km": 573.9189604166825,
      "semi_major_axis_km": 6947.602006564689,
      "eccentricity": 0.00073674,
      "inclination_deg": 45.4125,
      "raan_deg": 25.8804,
      "arg_perigee_deg": 149.6071,
      "mean_anomaly_deg": 210.5235,
      "mean_motion_rev_day": 14.99168209
    },
    {
      "epoch": "2026-03-31T19:29:33.766368Z",
      "apogee_km": 574.6352473621346,
      "perigee_km": 565.6150134644331,
      "latitude_deg": -1.44374901610018e-05,
      "longitude_deg": -104.67961271636432,
      "height_km": 574.422667494221,
      "semi_major_axis_km": 6948.262130413284,
      "eccentricity": 0.0006491,
      "inclination_deg": 45.4128,
      "raan_deg": 16.8953,
      "arg_perigee_deg": 160.6893,
      "mean_anomaly_deg": 199.4232,
      "mean_motion_rev_day": 14.9895457
    },
    {
      "epoch": "2026-04-01T19:29:07.163808Z",
      "apogee_km": 574.6811344515545,
      "perigee_km": 565.510856544096,
      "latitude_deg": 4.6928956094989883e-05,
      "longitude_deg": -110.73754879016938,
      "height_km": 574.5970275167076,
      "semi_major_axis_km": 6948.232995497825,
      "eccentricity": 0.0006599,
      "inclination_deg": 45.4129,
      "raan_deg": 11.7118,
      "arg_perigee_deg": 166.5339,
      "mean_anomaly_deg": 193.5717,
      "mean_motion_rev_day": 14.98963998
    },
    {
      "epoch": "2026-04-02T19:28:39.900288Z",
      "apogee_km": 574.7400157285047,
      "perigee_km": 565.3752390097361,
      "latitude_deg": 1.4773803195195038e-06,
      "longitude_deg": -116.79332850445265,
      "height_km": 574.7395080482553,
      "semi_major_axis_km": 6948.19462736912,
      "eccentricity": 0.0006739,
      "inclination_deg": 45.4132,
      "raan_deg": 6.5278,
      "arg_perigee_deg": 172.2068,
      "mean_anomaly_deg": 187.8916,
      "mean_motion_rev_day": 14.98976414
    },
    {
      "epoch": "2026-04-02T22:40:36.132096Z",
      "apogee_km": 574.7334087109093,
      "perigee_km": 565.3407280417969,
      "latitude_deg": 2.669066383442829e-05,
      "longitude_deg": -165.5999792378503,
      "height_km": 574.7405102111056,
      "semi_major_axis_km": 6948.174068376353,
      "eccentricity": 0.00067591,
      "inclination_deg": 45.4132,
      "raan_deg": 5.8368,
      "arg_perigee_deg": 172.928,
      "mean_anomaly_deg": 187.1695,
      "mean_motion_rev_day": 14.98983067
    },
    {
      "epoch": "2026-04-03T19:28:11.599104Z",
      "apogee_km": 574.7726450286673,
      "perigee_km": 565.2161850804005,
      "latitude_deg": -3.0145006951295537e-05,
      "longitude_deg": -122.8445599519489,
      "height_km": 574.8123757707984,
      "semi_major_axis_km": 6948.131415054533,
      "eccentricity": 0.0006877,
      "inclination_deg": 45.4132,
      "raan_deg": 1.344,
      "arg_perigee_deg": 177.7343,
      "mean_anomaly_deg": 182.3567,
      "mean_motion_rev_day": 14.9899687
    },
    {
      "epoch": "2026-04-04T19:27:54.285408Z",
      "apogee_km": 574.8071912829337,
      "perigee_km": 566.563108684194,
      "latitude_deg": 1.672883178132197e-06,
      "longitude_deg": -128.94043660924467,
      "height_km": 574.8423725919072,
      "semi_major_axis_km": 6948.822149983564,
      "eccentricity": 0.0005932,
      "inclination_deg": 45.4132,
      "raan_deg": 356.1614,
      "arg_perigee_deg": 183.7978,
      "mean_anomaly_deg": 176.2856,
      "mean_motion_rev_day": 14.98773368
    },
    {
      "epoch": "2026-04-05T13:03:42.467328Z",
      "apogee_km": 574.8554621667636,
      "perigee_km": 566.4621506880967,
      "latitude_deg": 3.3622903686867474e-06,
      "longitude_deg": -37.414165603867204,
      "height_km": 574.8569408710938,
      "semi_major_axis_km": 6948.79580642743,
      "eccentricity": 0.00060394,
      "inclination_deg": 45.413,
      "raan_deg": 352.3611,
      "arg_perigee_deg": 188.2271,
      "mean_anomaly_deg": 171.8509,
      "mean_motion_rev_day": 14.98781891
    },
    {
      "epoch": "2026-04-05T19:27:38.220192Z",
      "apogee_km": 574.6732372934066,
      "perigee_km": 566.6404316207745,
      "latitude_deg": -6.571473397284836e-06,
      "longitude_deg": -135.0398696290113,
      "height_km": 574.6672894494654,
      "semi_major_axis_km": 6948.79383445709,
      "eccentricity": 0.000578,
      "inclination_deg": 45.4126,
      "raan_deg": 350.9805,
      "arg_perigee_deg": 189.1081,
      "mean_anomaly_deg": 170.9693,
      "mean_motion_rev_day": 14.98782529
    },
    {
      "epoch": "2026-04-06T05:03:31.567392Z",
      "apogee_km": 574.844842575114,
      "perigee_km": 566.4395992295103,
      "latitude_deg": -1.1382457314720156e-05,
      "longitude_deg": 78.51836269710593,
      "height_km": 574.8095444776483,
      "semi_major_axis_km": 6948.779220902312,
      "eccentricity": 0.0006048,
      "inclination_deg": 45.4131,
      "raan_deg": 348.9052,
      "arg_perigee_deg": 191.2163,
      "mean_anomaly_deg": 168.8581,
      "mean_motion_rev_day": 14.98787257
    },
    {
      "epoch": "2026-04-07T14:39:07.809120Z",
      "apogee_km": 574.9330884638321,
      "perigee_km": 566.2834293404567,
      "latitude_deg": 1.0263719619933944e-05,
      "longitude_deg": -74.01825896597563,
      "height_km": 574.7597021766634,
      "semi_major_axis_km": 6948.745258902144,
      "eccentricity": 0.00062239,
      "inclination_deg": 45.4127,
      "raan_deg": 341.6492,
      "arg_perigee_deg": 198.3105,
      "mean_anomaly_deg": 161.755,
      "mean_motion_rev_day": 14.98798245
    },
    {
      "epoch": "2026-04-07T19:27:04.362624Z",
      "apogee_km": 574.9448586080844,
      "perigee_km": 566.2658793892051,
      "latitude_deg": -2.3301848717247153e-05,
      "longitude_deg": -147.23772173510764,
      "height_km": 574.7465163072411,
      "semi_major_axis_km": 6948.742368998644,
      "eccentricity": 0.0006245,
      "inclination_deg": 45.4126,
      "raan_deg": 340.6125,
      "arg_perigee_deg": 199.3054,
      "mean_anomaly_deg": 160.7588,
      "mean_motion_rev_day": 14.9879918
    },
    {
      "epoch": "2026-04-08T16:14:59.131392Z",
      "apogee_km": 575.0464279030703,
      "perigee_km": 567.5875789212078,
      "latitude_deg": 3.761946842776333e-05,
      "longitude_deg": -104.56113382828629,
      "height_km": 574.7131245285399,
      "semi_major_axis_km": 6949.454003412139,
      "eccentricity": 0.00053665,
      "inclination_deg": 45.4126,
      "raan_deg": 336.1214,
      "arg_perigee_deg": 206.0639,
      "mean_anomaly_deg": 153.997,
      "mean_motion_rev_day": 14.98568967
    }
  ]
}